[{"OBJECT_NAME":"STARLINK-11175 [DTC]","OBJECT_ID":"2024-124J","EPOCH":"2026-03-09T23:01:00.907392","MEAN_MOTION":15.69698658,"ECCENTRICITY":0.00010849,"INCLINATION":53.1596,"RA_OF_ASC_NODE":160.1258,"ARG_OF_PERICENTER":88.3289,"MEAN_ANOMALY":271.7854,"EPHEMERIS_TYPE":0,"CLASSIFICATION_TYPE":"U","NORAD_CAT_ID":60191,"ELEMENT_SET_NO":999,"REV_AT_EPOCH":9657,"BSTAR":-1.6058289e-5,"MEAN_MOTION_DOT":-2.532e-5,"MEAN_MOTION_DDOT":0},{"OBJECT_NAME":"COSMOS 2251 DEB","OBJECT_ID":"1993-036ACZ","EPOCH":"2026-03-09T10:58:34.310784","MEAN_MOTION":15.61456508,"ECCENTRICITY":0.00259421,"INCLINATION":73.9464,"RA_OF_ASC_NODE":350.3161,"ARG_OF_PERICENTER":162.2886,"MEAN_ANOMALY":197.9243,"EPHEMERIS_TYPE":0,"CLASSIFICATION_TYPE":"U","NORAD_CAT_ID":34886,"ELEMENT_SET_NO":999,"REV_AT_EPOCH":64340,"BSTAR":0.0024914642,"MEAN_MOTION_DOT":0.00222233,"MEAN_MOTION_DDOT":0}]
